[
  {
    "name": "ONEWEB-0225",
    "noradId": "48799",
    "line1": "1 48799U 21045AJ  26180.15169457  .00000062  00000+0  13158-3 0  9992",
    "line2": "2 48799  87.9005 256.8151 0001789 115.8047 244.3268 13.15549864245991"
  },
  {
    "name": "ONEWEB-0215",
    "noradId": "48800",
    "line1": "1 48800U 21045AK  26179.58918955  .00000187  00000+0  46194-3 0  9999",
    "line2": "2 48800  87.9009 256.9104 0001863 120.4106 239.7209 13.15547893245799"
  },
  {
    "name": "ONEWEB-0216",
    "noradId": "48801",
    "line1": "1 48801U 21045AL  26179.67475399  .00000093  00000+0  21367-3 0  9991",
    "line2": "2 48801  87.9007 256.9077 0001962  97.9009 262.2344 13.15549529245819"
  },
  {
    "name": "ONEWEB-0239",
    "noradId": "48802",
    "line1": "1 48802U 21045AM  26179.90767732  .00000108  00000+0  25167-3 0  9992",
    "line2": "2 48802  87.8998 256.8667 0002149 122.3801 237.7538 13.15548893245885"
  },
  {
    "name": "ONEWEB-0249",
    "noradId": "48967",
    "line1": "1 48967U 21060A   26180.51638147  .00000022  00000+0  22955-4 0  9995",
    "line2": "2 48967  87.9090 226.3296 0002115  98.8514 261.2857 13.16595999241233"
  },
  {
    "name": "ONEWEB-0250",
    "noradId": "48968",
    "line1": "1 48968U 21060B   26180.53331134 -.00000002  00000+0 -34122-4 0  9993",
    "line2": "2 48968  87.9087 224.0424 0003078 101.7938 258.3544 13.25834215241856"
  },
  {
    "name": "ONEWEB-0252",
    "noradId": "48970",
    "line1": "1 48970U 21060D   26179.63530905  .00000060  00000+0  12267-3 0  9999",
    "line2": "2 48970  87.9086 226.4970 0001812  93.5181 266.6158 13.16594192241166"
  },
  {
    "name": "ONEWEB-0253",
    "noradId": "48971",
    "line1": "1 48971U 21060E   26180.53619118 -.00000055  00000+0 -17738-3 0  9999",
    "line2": "2 48971  87.9088 226.3233 0002160  97.8969 262.2408 13.16594370241212"
  },
  {
    "name": "ONEWEB-0254",
    "noradId": "48972",
    "line1": "1 48972U 21060F   26180.54568309 -.00000045  00000+0 -15252-3 0  9994",
    "line2": "2 48972  87.9089 226.3194 0002092 104.9372 255.1990 13.16595667241219"
  },
  {
    "name": "ONEWEB-0255",
    "noradId": "48973",
    "line1": "1 48973U 21060G   26180.50768502  .00000006  00000+0 -18757-4 0  9998",
    "line2": "2 48973  87.9089 226.3333 0002021 101.3361 258.7997 13.16595316241280"
  },
  {
    "name": "ONEWEB-0256",
    "noradId": "48974",
    "line1": "1 48974U 21060H   26180.53381338 -.00000054  00000+0 -17380-3 0  9994",
    "line2": "2 48974  87.9083 226.3316 0002038  92.5658 267.5706 13.16594120241259"
  },
  {
    "name": "ONEWEB-0257",
    "noradId": "48975",
    "line1": "1 48975U 21060J   26180.49026610  .00000016  00000+0  80142-5 0  9993",
    "line2": "2 48975  87.9086 226.3279 0001929  98.3159 261.8191 13.16594252241205"
  },
  {
    "name": "ONEWEB-0258",
    "noradId": "48976",
    "line1": "1 48976U 21060K   26180.49185220  .00000040  00000+0  71716-4 0  9990",
    "line2": "2 48976  87.9088 226.3396 0002092  96.8510 263.2859 13.16595059241218"
  },
  {
    "name": "ONEWEB-0259",
    "noradId": "48977",
    "line1": "1 48977U 21060L   26180.48551740  .00000031  00000+0  46412-4 0  9999",
    "line2": "2 48977  87.9086 226.3399 0002145 100.1453 259.9920 13.16595344241245"
  },
  {
    "name": "ONEWEB-0260",
    "noradId": "48978",
    "line1": "1 48978U 21060M   26179.64084268  .00000061  00000+0  12600-3 0  9996",
    "line2": "2 48978  87.9082 226.5089 0001775  87.2781 272.8553 13.16594270241116"
  },
  {
    "name": "ONEWEB-0261",
    "noradId": "48979",
    "line1": "1 48979U 21060N   26180.52272542 -.00000008  00000+0 -54829-4 0  9993",
    "line2": "2 48979  87.9086 226.3338 0001822 102.6031 257.5304 13.16592936241288"
  },
  {
    "name": "ONEWEB-0262",
    "noradId": "48980",
    "line1": "1 48980U 21060P   26180.50293311  .00000028  00000+0  38366-4 0  9998",
    "line2": "2 48980  87.9088 226.3241 0002243 102.5057 257.6325 13.16595153241244"
  },
  {
    "name": "ONEWEB-0263",
    "noradId": "48981",
    "line1": "1 48981U 21060Q   26180.53459543 -.00000138  00000+0 -39581-3 0  9996",
    "line2": "2 48981  87.9090 226.3299 0001933 105.0523 255.0822 13.16595892241213"
  },
  {
    "name": "ONEWEB-0264",
    "noradId": "48982",
    "line1": "1 48982U 21060R   26180.49580500  .00000099  00000+0  22632-3 0  9993",
    "line2": "2 48982  87.9087 226.3402 0001811  96.2004 263.9333 13.16595888241216"
  },
  {
    "name": "ONEWEB-0266",
    "noradId": "48984",
    "line1": "1 48984U 21060T   26180.51718890  .00000009  00000+0 -10652-4 0  9995",
    "line2": "2 48984  87.9090 226.3264 0002128  94.8988 265.2386 13.16595092241204"
  },
  {
    "name": "ONEWEB-0267",
    "noradId": "48985",
    "line1": "1 48985U 21060U   26180.52826671 -.00000061  00000+0 -19386-3 0  9995",
    "line2": "2 48985  87.9090 226.3210 0001865  99.0562 261.0780 13.16595508241213"
  },
  {
    "name": "ONEWEB-0268",
    "noradId": "48986",
    "line1": "1 48986U 21060V   26180.49659435  .00000152  00000+0  36396-3 0  9993",
    "line2": "2 48986  87.9089 226.3370 0001978  92.5755 267.5602 13.16593520241470"
  },
  {
    "name": "ONEWEB-0269",
    "noradId": "48987",
    "line1": "1 48987U 21060W   26179.64163439  .00000047  00000+0  90003-4 0  9992",
    "line2": "2 48987  87.9079 226.5083 0002061  90.2437 269.8930 13.16594375241130"
  },
  {
    "name": "ONEWEB-0270",
    "noradId": "48988",
    "line1": "1 48988U 21060X   26180.49501829  .00000139  00000+0  33074-3 0  9993",
    "line2": "2 48988  87.9088 226.3391 0002066 106.5049 253.6309 13.16596011241282"
  },
  {
    "name": "ONEWEB-0271",
    "noradId": "48989",
    "line1": "1 48989U 21060Y   26179.64638753  .00000042  00000+0  76952-4 0  9992",
    "line2": "2 48989  87.9086 226.4973 0001911 102.6969 257.4376 13.16594939241175"
  },
  {
    "name": "ONEWEB-0272",
    "noradId": "48990",
    "line1": "1 48990U 21060Z   26179.66856223  .00000029  00000+0  41594-4 0  9999",
    "line2": "2 48990  87.9082 226.5045 0001764  93.1060 267.0273 13.16592626241125"
  },
  {
    "name": "ONEWEB-0273",
    "noradId": "48991",
    "line1": "1 48991U 21060AA  26180.14669624  .00000058  00000+0  11816-3 0  9997",
    "line2": "2 48991  87.9093 226.4097 0002039 100.4438 259.6923 13.16595345241165"
  },
  {
    "name": "ONEWEB-0274",
    "noradId": "48992",
    "line1": "1 48992U 21060AB  26179.64005266  .00000124  00000+0  29122-3 0  9990",
    "line2": "2 48992  87.9079 226.5112 0001793  90.6268 269.5069 13.16593616241133"
  },
  {
    "name": "ONEWEB-0275",
    "noradId": "48993",
    "line1": "1 48993U 21060AC  26180.54093859 -.00000097  00000+0 -28819-3 0  9990",
    "line2": "2 48993  87.9088 226.3225 0001938  95.8725 264.2627 13.16594982241187"
  },
  {
    "name": "ONEWEB-0276",
    "noradId": "48994",
    "line1": "1 48994U 21060AD  26180.49818534 -.00000008  00000+0 -53553-4 0  9996",
    "line2": "2 48994  87.9087 226.3303 0001886  92.8464 267.2883 13.16594684241190"
  }
]