OBJECT_NAME,OBJECT_ID,EPOCH,MEAN_MOTION,ECCENTRICITY,INCLINATION,RA_OF_ASC_NODE,ARG_OF_PERICENTER,MEAN_ANOMALY,EPHEMERIS_TYPE,CLASSIFICATION_TYPE,NORAD_CAT_ID,ELEMENT_SET_NO,REV_AT_EPOCH,BSTAR,MEAN_MOTION_DOT,MEAN_MOTION_DDOT
ONEWEB-0225,2021-045AJ,2026-06-29T03:38:26.410848,13.15549864,.0001789,87.9005,256.8151,115.8047,244.3268,0,U,48799,999,24599,.13158E-3,.62E-6,0
ONEWEB-0215,2021-045AK,2026-06-28T14:08:25.977120,13.15547893,.00018636,87.9009,256.9104,120.4106,239.7209,0,U,48800,999,24579,.4619359E-3,.187E-5,0
ONEWEB-0216,2021-045AL,2026-06-28T16:11:38.744736,13.15549529,.00019624,87.9007,256.9077,97.9009,262.2344,0,U,48801,999,24581,.21366528E-3,.93E-6,0
ONEWEB-0239,2021-045AM,2026-06-28T21:47:03.320448,13.15548893,.00021497,87.8998,256.8667,122.3801,237.7538,0,U,48802,999,24588,.25166545E-3,.108E-5,0
ONEWEB-0249,2021-060A,2026-06-29T12:23:35.359008,13.16595999,.0002115,87.9090,226.3296,98.8514,261.2857,0,U,48967,999,24123,.22955E-4,.22E-6,0
ONEWEB-0250,2021-060B,2026-06-29T12:47:58.099776,13.25834215,.0003078,87.9087,224.0424,101.7938,258.3544,0,U,48968,999,24185,-.34122E-4,-.2E-7,0
ONEWEB-0252,2021-060D,2026-06-28T15:14:50.701920,13.16594192,.00018122,87.9086,226.4970,93.5181,266.6158,0,U,48970,999,24116,.12267362E-3,.6E-6,0
ONEWEB-0253,2021-060E,2026-06-29T12:52:06.917952,13.16594370,.000216,87.9088,226.3233,97.8969,262.2408,0,U,48971,999,24121,-.17738E-3,-.55E-6,0
ONEWEB-0254,2021-060F,2026-06-29T13:05:47.018976,13.16595667,.0002092,87.9089,226.3194,104.9372,255.1990,0,U,48972,999,24121,-.15252E-3,-.45E-6,0
ONEWEB-0255,2021-060G,2026-06-29T12:11:03.985728,13.16595316,.0002021,87.9089,226.3333,101.3361,258.7997,0,U,48973,999,24128,-.18757E-4,.6E-7,0
ONEWEB-0256,2021-060H,2026-06-29T12:48:41.476032,13.16594120,.0002038,87.9083,226.3316,92.5658,267.5706,0,U,48974,999,24125,-.1738E-3,-.54E-6,0
ONEWEB-0257,2021-060J,2026-06-29T11:45:58.991040,13.16594252,.0001929,87.9086,226.3279,98.3159,261.8191,0,U,48975,999,24120,.80142E-5,.16E-6,0
ONEWEB-0258,2021-060K,2026-06-29T11:48:16.030080,13.16595059,.0002092,87.9088,226.3396,96.8510,263.2859,0,U,48976,999,24121,.71716E-4,.4E-6,0
ONEWEB-0259,2021-060L,2026-06-29T11:39:08.703360,13.16595344,.0002145,87.9086,226.3399,100.1453,259.9920,0,U,48977,999,24124,.46412E-4,.31E-6,0
ONEWEB-0260,2021-060M,2026-06-28T15:22:48.807552,13.16594270,.00017759,87.9082,226.5089,87.2781,272.8553,0,U,48978,999,24111,.12600259E-3,.61E-6,0
ONEWEB-0261,2021-060N,2026-06-29T12:32:43.476288,13.16592936,.0001822,87.9086,226.3338,102.6031,257.5304,0,U,48979,999,24128,-.54829E-4,-.8E-7,0
ONEWEB-0262,2021-060P,2026-06-29T12:04:13.420704,13.16595153,.0002243,87.9088,226.3241,102.5057,257.6325,0,U,48980,999,24124,.38366E-4,.28E-6,0
ONEWEB-0263,2021-060Q,2026-06-29T12:49:49.045152,13.16595892,.0001933,87.9090,226.3299,105.0523,255.0822,0,U,48981,999,24121,-.39581E-3,-.138E-5,0
ONEWEB-0264,2021-060R,2026-06-29T11:53:57.552000,13.16595888,.0001811,87.9087,226.3402,96.2004,263.9333,0,U,48982,999,24121,.22632E-3,.99E-6,0
ONEWEB-0266,2021-060T,2026-06-29T12:24:45.120960,13.16595092,.0002128,87.9090,226.3264,94.8988,265.2386,0,U,48984,999,24120,-.10652E-4,.9E-7,0
ONEWEB-0267,2021-060U,2026-06-29T12:40:42.243744,13.16595508,.0001865,87.9090,226.3210,99.0562,261.0780,0,U,48985,999,24121,-.19386E-3,-.61E-6,0
ONEWEB-0268,2021-060V,2026-06-29T11:55:05.751840,13.16593520,.0001978,87.9089,226.3370,92.5755,267.5602,0,U,48986,999,24147,.36396E-3,.152E-5,0
ONEWEB-0269,2021-060W,2026-06-28T15:23:57.211296,13.16594375,.00020615,87.9079,226.5083,90.2437,269.8930,0,U,48987,999,24113,.90003308E-4,.47E-6,0
ONEWEB-0270,2021-060X,2026-06-29T11:52:49.580256,13.16596011,.0002066,87.9088,226.3391,106.5049,253.6309,0,U,48988,999,24128,.33074E-3,.139E-5,0
ONEWEB-0271,2021-060Y,2026-06-28T15:30:47.882592,13.16594939,.00019114,87.9086,226.4973,102.6969,257.4376,0,U,48989,999,24117,.76952028E-4,.42E-6,0
ONEWEB-0272,2021-060Z,2026-06-28T16:02:43.776672,13.16592626,.00017646,87.9082,226.5045,93.1060,267.0273,0,U,48990,999,24112,.41594142E-4,.29E-6,0
ONEWEB-0273,2021-060AA,2026-06-29T03:31:14.555136,13.16595345,.0002039,87.9093,226.4097,100.4438,259.6923,0,U,48991,999,24116,.11816E-3,.58E-6,0
ONEWEB-0274,2021-060AB,2026-06-28T15:21:40.549824,13.16593616,.00017939,87.9079,226.5112,90.6268,269.5069,0,U,48992,999,24113,.29122156E-3,.124E-5,0
ONEWEB-0275,2021-060AC,2026-06-29T12:58:57.094176,13.16594982,.0001938,87.9088,226.3225,95.8725,264.2627,0,U,48993,999,24118,-.28819E-3,-.97E-6,0
ONEWEB-0276,2021-060AD,2026-06-29T11:57:23.213376,13.16594684,.0001886,87.9087,226.3303,92.8464,267.2883,0,U,48994,999,24119,-.53553E-4,-.8E-7,0
